[{"OBJECT_NAME":"YAOGAN-43 01D","OBJECT_ID":"2024-148D","EPOCH":"2026-03-09T10:27:16.254720","MEAN_MOTION":15.28369377,"ECCENTRICITY":0.00025569,"INCLINATION":35.001,"RA_OF_ASC_NODE":61.7102,"ARG_OF_PERICENTER":326.2473,"MEAN_ANOMALY":33.808,"EPHEMERIS_TYPE":0,"CLASSIFICATION_TYPE":"U","NORAD_CAT_ID":60461,"ELEMENT_SET_NO":999,"REV_AT_EPOCH":8700,"BSTAR":0.00037765912,"MEAN_MOTION_DOT":0.00010676,"MEAN_MOTION_DDOT":0},{"OBJECT_NAME":"STARLINK-32611","OBJECT_ID":"2024-210T","EPOCH":"2026-03-09T07:41:32.038944","MEAN_MOTION":15.27599373,"ECCENTRICITY":0.00029733,"INCLINATION":43.0003,"RA_OF_ASC_NODE":181.8939,"ARG_OF_PERICENTER":281.0334,"MEAN_ANOMALY":79.0183,"EPHEMERIS_TYPE":0,"CLASSIFICATION_TYPE":"U","NORAD_CAT_ID":61976,"ELEMENT_SET_NO":999,"REV_AT_EPOCH":7482,"BSTAR":0.0012881067,"MEAN_MOTION_DOT":0.00035378,"MEAN_MOTION_DDOT":0}]
