YAOGAN-43 01D           
1 60461U 24148D   26068.43560480  .00010676  00000+0  37766-3 0  9999
2 60461  35.0010  61.7102 0002556 326.2473  33.8080 15.28369377 87008
STARLINK-32611          
1 61976U 24210T   26068.32050971  .00035378  00000+0  12881-2 0  9994
2 61976  43.0003 181.8939 0002973 281.0334  79.0183 15.27599373 74822
